[{"OBJECT_NAME":"STARLINK-31611","OBJECT_ID":"2024-057F","EPOCH":"2026-03-08T15:19:59.022048","MEAN_MOTION":15.27577803,"ECCENTRICITY":0.00014261,"INCLINATION":42.9971,"RA_OF_ASC_NODE":193.4134,"ARG_OF_PERICENTER":288.4796,"MEAN_ANOMALY":71.5901,"EPHEMERIS_TYPE":0,"CLASSIFICATION_TYPE":"U","NORAD_CAT_ID":59325,"ELEMENT_SET_NO":999,"REV_AT_EPOCH":10967,"BSTAR":2.489476e-6,"MEAN_MOTION_DOT":-1.94e-6,"MEAN_MOTION_DDOT":0},{"OBJECT_NAME":"AL MUNTHER","OBJECT_ID":"2025-052AG","EPOCH":"2026-03-09T15:29:23.207136","MEAN_MOTION":15.28381521,"ECCENTRICITY":0.0008027,"INCLINATION":97.4001,"RA_OF_ASC_NODE":323.9152,"ARG_OF_PERICENTER":130.7043,"MEAN_ANOMALY":229.4895,"EPHEMERIS_TYPE":0,"CLASSIFICATION_TYPE":"U","NORAD_CAT_ID":63240,"ELEMENT_SET_NO":999,"REV_AT_EPOCH":5479,"BSTAR":0.00065015,"MEAN_MOTION_DOT":0.00017933,"MEAN_MOTION_DDOT":0}]
